{
    "CCSDS_OMM_VERS": "3.0",
    "COMMENT": "GENERATED VIA SPACE-TRACK.ORG API",
    "CREATION_DATE": "2025-11-23T14:26:32",
    "ORIGINATOR": "18 SPCS",
    "OBJECT_NAME": "BEIDOU 3M17",
    "OBJECT_ID": "2018-093A",
    "CENTER_NAME": "EARTH",
    "REF_FRAME": "TEME",
    "TIME_SYSTEM": "UTC",
    "MEAN_ELEMENT_THEORY": "SGP4",
    "EPOCH": "2025-11-23T09:47:35.418048",
    "MEAN_MOTION": "1.86228448",
    "ECCENTRICITY": "0.00065600",
    "INCLINATION": "54.1726",
    "RA_OF_ASC_NODE": "189.2786",
    "ARG_OF_PERICENTER": "305.7528",
    "MEAN_ANOMALY": "248.0001",
    "EPHEMERIS_TYPE": "0",
    "CLASSIFICATION_TYPE": "U",
    "NORAD_CAT_ID": "43706",
    "ELEMENT_SET_NO": "999",
    "REV_AT_EPOCH": "4770",
    "BSTAR": "0.00000000000000",
    "MEAN_MOTION_DOT": "0.00000067",
    "MEAN_MOTION_DDOT": "0.0000000000000",
    "SEMIMAJOR_AXIS": "27906.444",
    "PERIOD": "773.244",
    "APOAPSIS": "21546.615",
    "PERIAPSIS": "21510.002",
    "OBJECT_TYPE": "PAYLOAD",
    "RCS_SIZE": "LARGE",
    "COUNTRY_CODE": "PRC",
    "LAUNCH_DATE": "2018-11-18",
    "SITE": "XSC",
    "DECAY_DATE": null,
    "FILE": "4895660",
    "GP_ID": "303303372",
    "TLE_LINE0": "0 BEIDOU 3M17",
    "TLE_LINE1": "1 43706U 18093A   25327.40804882  .00000067  00000-0  00000+0 0  9996",
    "TLE_LINE2": "2 43706  54.1726 189.2786 0006560 305.7528 248.0001  1.86228448 47701"
}